QIANFAN-1               
1 60379U 24140A   25215.89408897  .00000110  00000+0  15223-3 0  9991
2 60379  88.9842 312.8050 0016279 227.2574 132.7208 13.50955780 49682
QIANFAN-2               
1 60380U 24140B   25215.84880140  .00000120  00000+0  16787-3 0  9990
2 60380  88.9829 312.6672 0012586 195.9430 164.1327 13.50962318 49738
QIANFAN-3               
1 60381U 24140C   25216.22729891  .00000118  00000+0  16426-3 0  9996
2 60381  88.9821 312.7705 0013278 208.4683 151.5745 13.50960532 49693
QIANFAN-4               
1 60382U 24140D   25216.20270687  .00000105  00000+0  14406-3 0  9991
2 60382  88.9846 312.6380 0012753 197.7451 162.3256 13.50956039 49806
QIANFAN-5               
1 60383U 24140E   25216.17805130  .00000112  00000+0  15435-3 0  9996
2 60383  88.9821 312.8014 0014134 221.2246 138.7839 13.50959084 49678
QIANFAN-6               
1 60384U 24140F   25216.19853456  .00000115  00000+0  16036-3 0  9994
2 60384  88.9847 312.5108 0012643 203.9113 156.1453 13.50955651 49875
QIANFAN-7               
1 60385U 24140G   25216.22970588  .00000559  00000+0  22131-3 0  9990
2 60385  88.9848 309.0401 0017531 109.1564 251.1530 14.27499758 51772
QIANFAN-8               
1 60386U 24140H   25216.20685050  .00000102  00000+0  13977-3 0  9998
2 60386  88.9849 312.7450 0015980 208.1367 151.8922 13.50959558 49756
